{
  "norad_id": 37153,
  "name": "STRELA 3",
  "history": [
    {
      "epoch": "2026-03-28T22:02:55.240224Z",
      "apogee_km": 1508.2945460593746,
      "perigee_km": 1498.21219861166,
      "latitude_deg": 7.139543665713087e-05,
      "longitude_deg": -28.630901147748343,
      "height_km": 1507.3047241878664,
      "semi_major_axis_km": 7881.390372335517,
      "eccentricity": 0.00063963,
      "inclination_deg": 82.4561,
      "raan_deg": 128.4315,
      "arg_perigee_deg": 254.4736,
      "mean_anomaly_deg": 105.5637,
      "mean_motion_rev_day": 12.40790625
    },
    {
      "epoch": "2026-03-29T03:51:15.320736Z",
      "apogee_km": 1508.2956401348902,
      "perigee_km": 1498.2137638696886,
      "latitude_deg": -4.36337719798044e-05,
      "longitude_deg": -116.10361167009438,
      "height_km": 1507.3572694608556,
      "semi_major_axis_km": 7881.391702002289,
      "eccentricity": 0.0006396,
      "inclination_deg": 82.456,
      "raan_deg": 128.2809,
      "arg_perigee_deg": 253.8678,
      "mean_anomaly_deg": 106.1696,
      "mean_motion_rev_day": 12.40790311
    },
    {
      "epoch": "2026-03-30T03:04:35.594400Z",
      "apogee_km": 1508.3064495023473,
      "perigee_km": 1498.2009303597179,
      "latitude_deg": -3.810824061432787e-05,
      "longitude_deg": -105.99468986749432,
      "height_km": 1507.549195971969,
      "semi_major_axis_km": 7881.390689931032,
      "eccentricity": 0.0006411,
      "inclination_deg": 82.456,
      "raan_deg": 127.678,
      "arg_perigee_deg": 251.6157,
      "mean_anomaly_deg": 108.4224,
      "mean_motion_rev_day": 12.4079055
    },
    {
      "epoch": "2026-03-30T05:00:42.295104Z",
      "apogee_km": 1508.3080444279904,
      "perigee_km": 1498.2011055000876,
      "latitude_deg": -3.771634264232944e-05,
      "longitude_deg": -135.15228494254453,
      "height_km": 1507.57269819406,
      "semi_major_axis_km": 7881.391574964038,
      "eccentricity": 0.00064119,
      "inclination_deg": 82.4559,
      "raan_deg": 127.6278,
      "arg_perigee_deg": 251.3479,
      "mean_anomaly_deg": 108.6903,
      "mean_motion_rev_day": 12.40790341
    },
    {
      "epoch": "2026-03-30T12:45:09.035712Z",
      "apogee_km": 1508.3140876719535,
      "perigee_km": 1498.1934361667563,
      "latitude_deg": -2.00876916891987e-05,
      "longitude_deg": 108.21749678384617,
      "height_km": 1507.648679564672,
      "semi_major_axis_km": 7881.390761919354,
      "eccentricity": 0.00064206,
      "inclination_deg": 82.4559,
      "raan_deg": 127.4269,
      "arg_perigee_deg": 250.454,
      "mean_anomaly_deg": 109.5845,
      "mean_motion_rev_day": 12.40790533
    },
    {
      "epoch": "2026-03-30T22:25:42.489120Z",
      "apogee_km": 1508.3099325714702,
      "perigee_km": 1498.198895526386,
      "latitude_deg": -7.402416019344097e-05,
      "longitude_deg": -37.57047658598797,
      "height_km": 1507.7209242503723,
      "semi_major_axis_km": 7881.391414048928,
      "eccentricity": 0.00064145,
      "inclination_deg": 82.4558,
      "raan_deg": 127.1757,
      "arg_perigee_deg": 249.5711,
      "mean_anomaly_deg": 110.4678,
      "mean_motion_rev_day": 12.40790379
    },
    {
      "epoch": "2026-03-31T19:42:56.081088Z",
      "apogee_km": 1508.3280809608987,
      "perigee_km": 1498.1815771201918,
      "latitude_deg": 6.424256549651275e-05,
      "longitude_deg": 1.6959791683693284,
      "height_km": 1507.918668480229,
      "semi_major_axis_km": 7881.391829040545,
      "eccentricity": 0.0006437,
      "inclination_deg": 82.4554,
      "raan_deg": 126.623,
      "arg_perigee_deg": 247.2491,
      "mean_anomaly_deg": 112.7908,
      "mean_motion_rev_day": 12.40790281
    },
    {
      "epoch": "2026-04-01T18:56:16.360800Z",
      "apogee_km": 1508.3489497034225,
      "perigee_km": 1498.1614621380495,
      "latitude_deg": 1.2046559274386135e-05,
      "longitude_deg": 11.80466874348149,
      "height_km": 1508.1167753695543,
      "semi_major_axis_km": 7881.392205920735,
      "eccentricity": 0.0006463,
      "inclination_deg": 82.4549,
      "raan_deg": 126.0199,
      "arg_perigee_deg": 244.9131,
      "mean_anomaly_deg": 115.1277,
      "mean_motion_rev_day": 12.40790192
    },
    {
      "epoch": "2026-04-02T20:05:43.279008Z",
      "apogee_km": 1508.3622887220354,
      "perigee_km": 1498.1432787284566,
      "latitude_deg": -4.120202015829831e-05,
      "longitude_deg": -7.243977510025335,
      "height_km": 1508.3364457678044,
      "semi_major_axis_km": 7881.389783725246,
      "eccentricity": 0.0006483,
      "inclination_deg": 82.4545,
      "raan_deg": 125.3666,
      "arg_perigee_deg": 242.2148,
      "mean_anomaly_deg": 117.8273,
      "mean_motion_rev_day": 12.40790764
    },
    {
      "epoch": "2026-04-02T23:57:56.638080Z",
      "apogee_km": 1508.3606166645168,
      "perigee_km": 1498.1417663631637,
      "latitude_deg": -7.60619836019672e-05,
      "longitude_deg": -65.55909554911396,
      "height_km": 1508.3650379016917,
      "semi_major_axis_km": 7881.38819151384,
      "eccentricity": 0.00064829,
      "inclination_deg": 82.4545,
      "raan_deg": 125.2661,
      "arg_perigee_deg": 241.831,
      "mean_anomaly_deg": 118.2113,
      "mean_motion_rev_day": 12.4079114
    },
    {
      "epoch": "2026-04-03T19:19:03.540576Z",
      "apogee_km": 1508.3779286280906,
      "perigee_km": 1498.1289684887852,
      "latitude_deg": -8.36471033451851e-05,
      "longitude_deg": 2.864887985398572,
      "height_km": 1508.5223202227282,
      "semi_major_axis_km": 7881.390448558438,
      "eccentricity": 0.0006502,
      "inclination_deg": 82.4541,
      "raan_deg": 124.7636,
      "arg_perigee_deg": 239.9374,
      "mean_anomaly_deg": 120.1059,
      "mean_motion_rev_day": 12.40790607
    },
    {
      "epoch": "2026-04-04T04:59:36.980160Z",
      "apogee_km": 1508.3818955877377,
      "perigee_km": 1498.123951346748,
      "latitude_deg": -4.444753674578757e-05,
      "longitude_deg": -142.9232160296802,
      "height_km": 1508.5958601643333,
      "semi_major_axis_km": 7881.389923467243,
      "eccentricity": 0.00065077,
      "inclination_deg": 82.4538,
      "raan_deg": 124.5122,
      "arg_perigee_deg": 239.0057,
      "mean_anomaly_deg": 121.0382,
      "mean_motion_rev_day": 12.40790731
    },
    {
      "epoch": "2026-04-05T13:53:30.666624Z",
      "apogee_km": 1508.4119050309082,
      "perigee_km": 1498.0929594750478,
      "latitude_deg": -2.8404689159993844e-05,
      "longitude_deg": 81.39780773122247,
      "height_km": 1508.8841274377148,
      "semi_major_axis_km": 7881.389432252978,
      "eccentricity": 0.00065464,
      "inclination_deg": 82.4536,
      "raan_deg": 123.658,
      "arg_perigee_deg": 235.3968,
      "mean_anomaly_deg": 124.6493,
      "mean_motion_rev_day": 12.40790847
    },
    {
      "epoch": "2026-04-05T19:41:50.741952Z",
      "apogee_km": 1508.4101618187597,
      "perigee_km": 1498.0965743830611,
      "latitude_deg": 9.081104484216463e-06,
      "longitude_deg": -6.075061514209934,
      "height_km": 1508.9258861713781,
      "semi_major_axis_km": 7881.39036810091,
      "eccentricity": 0.0006543,
      "inclination_deg": 82.4535,
      "raan_deg": 123.5072,
      "arg_perigee_deg": 234.8229,
      "mean_anomaly_deg": 125.2237,
      "mean_motion_rev_day": 12.40790626
    },
    {
      "epoch": "2026-04-06T07:18:30.878784Z",
      "apogee_km": 1508.4256432503207,
      "perigee_km": 1498.081948342102,
      "latitude_deg": -5.4144467624488863e-05,
      "longitude_deg": 178.97943932385206,
      "height_km": 1509.0153689485412,
      "semi_major_axis_km": 7881.390795796211,
      "eccentricity": 0.00065621,
      "inclination_deg": 82.4535,
      "raan_deg": 123.2058,
      "arg_perigee_deg": 233.7257,
      "mean_anomaly_deg": 126.3215,
      "mean_motion_rev_day": 12.40790525
    },
    {
      "epoch": "2026-04-07T20:04:37.957152Z",
      "apogee_km": 1508.4521450750854,
      "perigee_km": 1498.056589861395,
      "latitude_deg": 2.228235342026034e-05,
      "longitude_deg": -15.01458207491935,
      "height_km": 1509.2959592790314,
      "semi_major_axis_km": 7881.39136746824,
      "eccentricity": 0.0006595,
      "inclination_deg": 82.4535,
      "raan_deg": 122.2513,
      "arg_perigee_deg": 230.0144,
      "mean_anomaly_deg": 130.0356,
      "mean_motion_rev_day": 12.4079039
    },
    {
      "epoch": "2026-04-08T13:29:38.143392Z",
      "apogee_km": 1508.45677047986,
      "perigee_km": 1498.0484497329608,
      "latitude_deg": 5.596583383869935e-05,
      "longitude_deg": 82.56726494181687,
      "height_km": 1509.412508929378,
      "semi_major_axis_km": 7881.38961010641,
      "eccentricity": 0.00066031,
      "inclination_deg": 82.4535,
      "raan_deg": 121.7992,
      "arg_perigee_deg": 228.352,
      "mean_anomaly_deg": 131.6994,
      "mean_motion_rev_day": 12.40790805
    },
    {
      "epoch": "2026-04-09T20:27:25.185312Z",
      "apogee_km": 1508.4801367165937,
      "perigee_km": 1498.0278359904914,
      "latitude_deg": 9.555936128312624e-05,
      "longitude_deg": -23.95414965522643,
      "height_km": 1509.6331544115806,
      "semi_major_axis_km": 7881.390986353543,
      "eccentricity": 0.0006631,
      "inclination_deg": 82.4537,
      "raan_deg": 120.9954,
      "arg_perigee_deg": 225.2725,
      "mean_anomaly_deg": 134.7815,
      "mean_motion_rev_day": 12.4079048
    },
    {
      "epoch": "2026-04-10T11:56:18.700224Z",
      "apogee_km": 1508.4995986607846,
      "perigee_km": 1498.0078913010657,
      "latitude_deg": -8.651273796333567e-06,
      "longitude_deg": 102.78515226720016,
      "height_km": 1509.748423585679,
      "semi_major_axis_km": 7881.390744980925,
      "eccentricity": 0.0006656,
      "inclination_deg": 82.4538,
      "raan_deg": 120.5935,
      "arg_perigee_deg": 223.6871,
      "mean_anomaly_deg": 136.3681,
      "mean_motion_rev_day": 12.40790537
    },
    {
      "epoch": "2026-04-11T20:50:12.402240Z",
      "apogee_km": 1508.52678518422,
      "perigee_km": 1497.9783333980658,
      "latitude_deg": -1.1303102137527331e-05,
      "longitude_deg": -32.89379217429892,
      "height_km": 1509.9769681101895,
      "semi_major_axis_km": 7881.389559291143,
      "eccentricity": 0.0006692,
      "inclination_deg": 82.4539,
      "raan_deg": 119.7394,
      "arg_perigee_deg": 220.2864,
      "mean_anomaly_deg": 139.7719,
      "mean_motion_rev_day": 12.40790817
    },
    {
      "epoch": "2026-04-13T07:40:12.829152Z",
      "apogee_km": 1508.5706752366586,
      "perigee_km": 1497.9363150415666,
      "latitude_deg": 3.122024848713564e-05,
      "longitude_deg": 162.26937506698255,
      "height_km": 1510.2057224842833,
      "semi_major_axis_km": 7881.390495139112,
      "eccentricity": 0.00067465,
      "inclination_deg": 82.4537,
      "raan_deg": 118.8349,
      "arg_perigee_deg": 216.9136,
      "mean_anomaly_deg": 143.1479,
      "mean_motion_rev_day": 12.40790596
    },
    {
      "epoch": "2026-04-14T20:26:19.897152Z",
      "apogee_km": 1508.5970396939301,
      "perigee_km": 1497.906723814719,
      "latitude_deg": -8.726172018205237e-05,
      "longitude_deg": -31.725022844232512,
      "height_km": 1510.42228014432,
      "semi_major_axis_km": 7881.388881754324,
      "eccentricity": 0.0006782,
      "inclination_deg": 82.4535,
      "raan_deg": 117.88,
      "arg_perigee_deg": 213.2569,
      "mean_anomaly_deg": 146.8083,
      "mean_motion_rev_day": 12.40790977
    },
    {
      "epoch": "2026-04-15T19:39:40.167360Z",
      "apogee_km": 1508.6135440316611,
      "perigee_km": 1497.89170158879,
      "latitude_deg": -2.6410119521850716e-05,
      "longitude_deg": -21.61637801902924,
      "height_km": 1510.5467221108638,
      "semi_major_axis_km": 7881.389622810226,
      "eccentricity": 0.0006802,
      "inclination_deg": 82.4532,
      "raan_deg": 117.2768,
      "arg_perigee_deg": 211.033,
      "mean_anomaly_deg": 149.0347,
      "mean_motion_rev_day": 12.40790802
    }
  ]
}